{
  "type": "FeatureCollection",
  "features": [
    {
      "type": "Feature",
      "properties": {
        "norad_id": 31744,
        "name": "FENGYUN 1C DEB",
        "group": "fengyun-1c-debris",
        "lat": 53.27294097507991,
        "lon": 83.58681421420738,
        "alt_km": 605.1258747971078,
        "timestamp": "2025-12-11T08:58:27.407979+00:00",
        "meta_object_name": "FENGYUN 1C DEB",
        "meta_object_id": "1999-025CET",
        "meta_epoch": "2025-12-04T13:59:28.410144",
        "meta_mean_motion": 14.16423838,
        "meta_eccentricity": 0.0316256,
        "meta_inclination": 99.3063,
        "meta_ra_of_asc_node": 89.1727,
        "meta_arg_of_pericenter": 67.4972,
        "meta_mean_anomaly": 295.9356,
        "meta_ephemeris_type": 0,
        "meta_classification_type": "U",
        "meta_norad_cat_id": 31744,
        "meta_element_set_no": 999,
        "meta_rev_at_epoch": 94499,
        "meta_bstar": 0.0032306,
        "meta_mean_motion_dot": 0.00010446,
        "meta_mean_motion_ddot": 0,
        "tle_line1": "1 31744U 99025CET 25338.58296771  .00010446  00000+0  32306-2 0  9990",
        "tle_line2": "2 31744  99.3063  89.1727 0316256  67.4972 295.9356 14.16423838944997"
      },
      "geometry": {
        "type": "Point",
        "coordinates": [
          83.58681421420738,
          53.27294097507991
        ]
      }
    },
    {
      "type": "Feature",
      "properties": {
        "norad_id": 31746,
        "name": "FENGYUN 1C DEB",
        "group": "fengyun-1c-debris",
        "lat": -10.530846961865585,
        "lon": -73.74639106162311,
        "alt_km": 628.5502585124268,
        "timestamp": "2025-12-11T08:58:27.407990+00:00",
        "meta_object_name": "FENGYUN 1C DEB",
        "meta_object_id": "1999-025CEV",
        "meta_epoch": "2025-12-08T13:25:49.648224",
        "meta_mean_motion": 14.76434428,
        "meta_eccentricity": 0.0023745,
        "meta_inclination": 98.5888,
        "meta_ra_of_asc_node": 104.8721,
        "meta_arg_of_pericenter": 218.9091,
        "meta_mean_anomaly": 141.0408,
        "meta_ephemeris_type": 0,
        "meta_classification_type": "U",
        "meta_norad_cat_id": 31746,
        "meta_element_set_no": 999,
        "meta_rev_at_epoch": 96966,
        "meta_bstar": 0.0049017,
        "meta_mean_motion_dot": 0.00034355,
        "meta_mean_motion_ddot": 0,
        "tle_line1": "1 31746U 99025CEV 25342.55960241  .00034355  00000+0  49017-2 0  9996",
        "tle_line2": "2 31746  98.5888 104.8721 0023745 218.9091 141.0408 14.76434428969660"
      },
      "geometry": {
        "type": "Point",
        "coordinates": [
          -73.74639106162311,
          -10.530846961865585
        ]
      }
    },
    {
      "type": "Feature",
      "properties": {
        "norad_id": 31752,
        "name": "FENGYUN 1C DEB",
        "group": "fengyun-1c-debris",
        "lat": 33.570522418358856,
        "lon": -115.784297066924,
        "alt_km": 1170.1110834478804,
        "timestamp": "2025-12-11T08:58:27.408000+00:00",
        "meta_object_name": "FENGYUN 1C DEB",
        "meta_object_id": "1999-025CFB",
        "meta_epoch": "2025-11-28T11:42:46.096128",
        "meta_mean_motion": 13.92945252,
        "meta_eccentricity": 0.0356614,
        "meta_inclination": 98.9794,
        "meta_ra_of_asc_node": 45.6633,
        "meta_arg_of_pericenter": 12.9266,
        "meta_mean_anomaly": 348.0748,
        "meta_ephemeris_type": 0,
        "meta_classification_type": "U",
        "meta_norad_cat_id": 31752,
        "meta_element_set_no": 999,
        "meta_rev_at_epoch": 93392,
        "meta_bstar": 0.0012622162,
        "meta_mean_motion_dot": 2.723e-05,
        "meta_mean_motion_ddot": 0,
        "tle_line1": "1 31752U 99025CFB 25332.48803352  .00002723  00000+0  12622-2 0  9999",
        "tle_line2": "2 31752  98.9794  45.6633 0356614  12.9266 348.0748 13.92945252933926"
      },
      "geometry": {
        "type": "Point",
        "coordinates": [
          -115.784297066924,
          33.570522418358856
        ]
      }
    },
    {
      "type": "Feature",
      "properties": {
        "norad_id": 31753,
        "name": "FENGYUN 1C DEB",
        "group": "fengyun-1c-debris",
        "lat": -71.40346628182427,
        "lon": 45.368364276841525,
        "alt_km": 872.6631211988406,
        "timestamp": "2025-12-11T08:58:27.408010+00:00",
        "meta_object_name": "FENGYUN 1C DEB",
        "meta_object_id": "1999-025CFC",
        "meta_epoch": "2025-12-10T01:18:33.226272",
        "meta_mean_motion": 14.18631258,
        "meta_eccentricity": 0.01589595,
        "meta_inclination": 98.6327,
        "meta_ra_of_asc_node": 17.2437,
        "meta_arg_of_pericenter": 181.5018,
        "meta_mean_anomaly": 208.9772,
        "meta_ephemeris_type": 0,
        "meta_classification_type": "U",
        "meta_norad_cat_id": 31753,
        "meta_element_set_no": 999,
        "meta_rev_at_epoch": 95981,
        "meta_bstar": 0.00046159825,
        "meta_mean_motion_dot": 1.042e-05,
        "meta_mean_motion_ddot": 0,
        "tle_line1": "1 31753U 99025CFC 25344.05455123  .00001042  00000+0  46160-3 0  9993",
        "tle_line2": "2 31753  98.6327  17.2437 0158959 181.5018 208.9772 14.18631258959817"
      },
      "geometry": {
        "type": "Point",
        "coordinates": [
          45.368364276841525,
          -71.40346628182427
        ]
      }
    },
    {
      "type": "Feature",
      "properties": {
        "norad_id": 31754,
        "name": "FENGYUN 1C DEB",
        "group": "fengyun-1c-debris",
        "lat": -77.94028009707704,
        "lon": 82.40971931764794,
        "alt_km": 731.4705594707111,
        "timestamp": "2025-12-11T08:58:27.408021+00:00",
        "meta_object_name": "FENGYUN 1C DEB",
        "meta_object_id": "1999-025CFD",
        "meta_epoch": "2025-12-11T04:25:58.975968",
        "meta_mean_motion": 14.42242018,
        "meta_eccentricity": 0.0049172,
        "meta_inclination": 99.0403,
        "meta_ra_of_asc_node": 310.3856,
        "meta_arg_of_pericenter": 222.5243,
        "meta_mean_anomaly": 137.2132,
        "meta_ephemeris_type": 0,
        "meta_classification_type": "U",
        "meta_norad_cat_id": 31754,
        "meta_element_set_no": 999,
        "meta_rev_at_epoch": 96967,
        "meta_bstar": 0.0015878,
        "meta_mean_motion_dot": 5.265e-05,
        "meta_mean_motion_ddot": 0,
        "tle_line1": "1 31754U 99025CFD 25345.18471037  .00005265  00000+0  15878-2 0  9993",
        "tle_line2": "2 31754  99.0403 310.3856 0049172 222.5243 137.2132 14.42242018969670"
      },
      "geometry": {
        "type": "Point",
        "coordinates": [
          82.40971931764794,
          -77.94028009707704
        ]
      }
    },
    {
      "type": "Feature",
      "properties": {
        "norad_id": 31757,
        "name": "FENGYUN 1C DEB",
        "group": "fengyun-1c-debris",
        "lat": 74.98256988921055,
        "lon": -27.637597546958457,
        "alt_km": 703.7590102462364,
        "timestamp": "2025-12-11T08:58:27.408035+00:00",
        "meta_object_name": "FENGYUN 1C DEB",
        "meta_object_id": "1999-025CFG",
        "meta_epoch": "2025-12-10T07:01:55.738272",
        "meta_mean_motion": 14.07915605,
        "meta_eccentricity": 0.0217958,
        "meta_inclination": 98.7682,
        "meta_ra_of_asc_node": 6.432,
        "meta_arg_of_pericenter": 90.9407,
        "meta_mean_anomaly": 271.6741,
        "meta_ephemeris_type": 0,
        "meta_classification_type": "U",
        "meta_norad_cat_id": 31757,
        "meta_element_set_no": 999,
        "meta_rev_at_epoch": 63847,
        "meta_bstar": 0.00035867,
        "meta_mean_motion_dot": 7.16e-06,
        "meta_mean_motion_ddot": 0,
        "tle_line1": "1 31757U 99025CFG 25344.29300623  .00000716  00000+0  35867-3 0  9996",
        "tle_line2": "2 31757  98.7682   6.4320 0217958  90.9407 271.6741 14.07915605638475"
      },
      "geometry": {
        "type": "Point",
        "coordinates": [
          -27.637597546958457,
          74.98256988921055
        ]
      }
    },
    {
      "type": "Feature",
      "properties": {
        "norad_id": 31758,
        "name": "FENGYUN 1C DEB",
        "group": "fengyun-1c-debris",
        "lat": 26.08896507233626,
        "lon": 178.50180554982205,
        "alt_km": 629.4455841949857,
        "timestamp": "2025-12-11T08:58:27.408045+00:00",
        "meta_object_name": "FENGYUN 1C DEB",
        "meta_object_id": "1999-025CFH",
        "meta_epoch": "2025-12-09T11:19:45.178752",
        "meta_mean_motion": 14.418924,
        "meta_eccentricity": 0.03185097,
        "meta_inclination": 98.0605,
        "meta_ra_of_asc_node": 352.7233,
        "meta_arg_of_pericenter": 100.1746,
        "meta_mean_anomaly": 263.5525,
        "meta_ephemeris_type": 0,
        "meta_classification_type": "U",
        "meta_norad_cat_id": 31758,
        "meta_element_set_no": 999,
        "meta_rev_at_epoch": 94153,
        "meta_bstar": 0.0026701195,
        "meta_mean_motion_dot": 0.00016114,
        "meta_mean_motion_ddot": 0,
        "tle_line1": "1 31758U 99025CFH 25343.47205068  .00016114  00000+0  26701-2 0  9998",
        "tle_line2": "2 31758  98.0605 352.7233 0318509 100.1746 263.5525 14.41892400941537"
      },
      "geometry": {
        "type": "Point",
        "coordinates": [
          178.50180554982205,
          26.08896507233626
        ]
      }
    }
  ]
}